STARLINK-2261           
1 48004U 21024AD  22015.86562492  .15963744  12198-4  35965-2 0  9991
2 48004  53.0137 158.6777 0008042 340.7940  19.3303 16.29338516 47733
STARLINK-2254           
1 48005U 21024AE  22016.08870890  .00001050  00000+0  89369-4 0  9991
2 48005  53.0534 261.4443 0001567  70.3633 289.7525 15.06404231 46323
STARLINK-2271           
1 48008U 21024AH  22015.91668981  .00041000  00000+0  27569-2 0  9992
2 48008  53.0525 197.1942 0003045  73.1823 316.1252 15.06378029  3601
STARLINK-2153           
1 48009U 21024AJ  22016.16885905 -.00015700  00000+0 -10363-2 0  9992
2 48009  53.0542 271.0366 0001727  61.6517 298.4646 15.06439524 46198
STARLINK-2226           
1 48010U 21024AK  22016.11542265  .00003719  00000+0  26832-3 0  9992
2 48010  53.0518 291.3142 0001807  62.4129 297.7043 15.06420956 45895
STARLINK-2272           
1 48011U 21024AL  22016.13843490  .00002214  00000+0  16746-3 0  9991
2 48011  53.0569 271.2097 0002070  71.5597 288.5617 15.06415612 46193
STARLINK-2216           
1 48012U 21024AM  22015.94086043  .00061024  00000+0  39181-2 0  9994
2 48012  53.0552 247.0606 0001688  59.4597 300.6559 15.07899457 46513
STARLINK-2243           
1 48013U 21024AN  22015.82932060  .00002354  00000+0  17686-3 0  9999
2 48013  53.0534 257.6075 0002167  71.8569 288.2656 15.06409327 46826
STARLINK-2283           
1 48014U 21024AP  22015.91668981  .00013715  00000+0  95850-3 0  9990
2 48014  53.0520 221.1094 0002427  69.3361 257.2125 15.05585723  3600
STARLINK-2281           
1 48015U 21024AQ  22016.23586926  .31811619  12816-4  86601-3 0  9995
2 48015  52.9542 156.7387 0022711  18.2525 343.6774 16.43043185 47785
STARLINK-2284           
1 48016U 21024AR  22015.91668981  .00032340  00000+0  21800-2 0  9990
2 48016  53.0518 207.1996 0002271  67.3307 266.8271 15.06400357  3607
STARLINK-2239           
1 48017U 21024AS  22016.08934569  .00013194  00000+0  49893-3 0  9997
2 48017  53.0513 269.0406 0001868  40.8241 319.2897 15.27294884 46210
STARLINK-2282           
1 48018U 21024AT  22016.11033497  .00004935  00000+0  34978-3 0  9993
2 48018  53.0542 276.3335 0002209  64.6552 295.4666 15.06422218 46113
STARLINK-2285           
1 48019U 21024AU  22016.07903236  .00001626  00000+0  12801-3 0  9991
2 48019  53.0551 266.4896 0002038  66.9024 293.2180 15.06406615 46250
STARLINK-2294           
1 48020U 21024AV  22015.91668981  .00004042  00000+0  29026-3 0  9992
2 48020  53.0521 222.1993 0002127  70.5584 101.2864 15.06381748  3593
STARLINK-2301           
1 48021U 21024AW  22015.86895634  .00002106  00000+0  16030-3 0  9994
2 48021  53.0560 227.4219 0002484  69.8217 290.3039 15.06396539 47255
STARLINK-2298           
1 48022U 21024AX  22016.13521858  .00003104  00000+0  22712-3 0  9993
2 48022  53.0541 286.2328 0002176  63.0098 297.1113 15.06412934 45973
STARLINK-2292           
1 48023U 21024AY  22015.88551918  .00005031  00000+0  35622-3 0  9990
2 48023  53.0540 287.3439 0002256  66.1936 293.9289 15.06421120 46462
STARLINK-2302           
1 48024U 21024AZ  22015.87958569  .48955245  11788-4  46491-3 0  9992
2 48024  53.0023 158.6803 0051143 212.3425 279.6502 16.45073709 47731
STARLINK-2278           
1 48026U 21024BB  22015.46670621  .00001864  00000+0  14397-3 0  9996
2 48026  53.0492 294.2528 0002065  87.3759 272.7467 15.06403128 46273
STARLINK-2300           
1 48027U 21024BC  22016.09008956  .00003277  00000+0  23872-3 0  9991
2 48027  53.0553 266.4320 0002284  74.1051 286.0189 15.06418561 46248
STARLINK-2264           
1 48028U 21024BD  22015.91668981  .00012026  00000+0  82514-3 0  9992
2 48028  53.0537 222.2109 0002025  67.0655   4.7267 15.06385920  3607
STARLINK-2299           
1 48029U 21024BE  22015.92974992  .00002840  00000+0  20942-3 0  9996
2 48029  53.0546 287.1652 0002060  71.0182 289.1030 15.06409336 46477
STARLINK-2268           
1 48030U 21024BF  22016.15597410  .00005165  00000+0  36524-3 0  9996
2 48030  53.0547 291.1230 0002072  66.1932 293.9274 15.06416454 45907
STARLINK-2267           
1 48031U 21024BG  22015.91668981 -.00644576  00000+0 -45539-1 0  9993
2 48031  53.0542 177.2006 0001421  67.1820 231.6326 15.06897702  3632
STARLINK-2286           
1 48033U 21024BJ  22016.11772851  .00002764  00000+0  20432-3 0  9992
2 48033  53.0587 286.2170 0002483  60.9476 299.1761 15.06414619 45970
STARLINK-2288           
1 48034U 21024BK  22016.13615957  .00002470  00000+0  18460-3 0  9990
2 48034  53.0546 286.2304 0002054  67.9382 292.1825 15.06408363 45975
STARLINK-2287           
1 48035U 21024BL  22016.07624690  .15034532  12091-4  29854-2 0  9994
2 48035  53.0322 157.9835 0009456 264.9341  96.3496 16.30620198 47754
STARLINK-2295           
1 48036U 21024BM  22016.14352941  .00001948  00000+0  14962-3 0  9996
2 48036  53.0553 286.1958 0002004  70.5259 289.5946 15.06408605 45970
BCCSAT-1                
1 48041U 21022AK  22015.69405170  .00003359  00000+0  22594-3 0  9990
2 48041  97.5449 278.8421 0014462 301.3192  58.6619 15.07333649 43817
ONEWEB-0115             
1 48042U 21025A   22015.81065333  .00000135  00000+0  33480-3 0  9996
2 48042  87.8913 280.7306 0001296  63.2361 296.8901 13.13467637 41800
ONEWEB-0152             
1 48043U 21025B   22016.12657552 -.00000094  00000+0 -29328-3 0  9994
2 48043  87.8964 280.6749 0001229  76.1034 284.0232 13.13468307 41815
ONEWEB-0153             
1 48044U 21025C   22016.10416416  .00000342  00000+0  90119-3 0  9995
2 48044  87.8896 280.8425 0001626  79.6983 280.4330 13.13470675 41804
ONEWEB-0154             
1 48045U 21025D   22015.79722560  .00001234  00000+0  33443-2 0  9997
2 48045  87.8991 280.7696 0001522  94.8979 265.2323 13.13470341 41712
ONEWEB-0116             
1 48046U 21025E   22015.83978631 -.00000232  00000+0 -66896-3 0  9993
2 48046  87.8986 280.7537 0001689  63.9585 296.1718 13.13470880 41860
ONEWEB-0150             
1 48047U 21025F   22016.11759876  .00000119  00000+0  28960-3 0  9996
2 48047  87.8871 280.6604 0001678  86.9396 273.1925 13.13471257 41797
ONEWEB-0107             
1 48048U 21025G   22015.81514432 -.00000004  00000+0 -46473-4 0  9995
2 48048  87.8897 280.7184 0001650  97.9919 262.1398 13.13470504 41733
ONEWEB-0101             
1 48049U 21025H   22016.16018264  .00000044  00000+0  85982-4 0  9997
2 48049  87.8888 280.7073 0001320  87.7195 272.4085 13.13471987 41753
ONEWEB-0113             
1 48050U 21025J   22016.13553527 -.00000240  00000+0 -69308-3 0  9995
2 48050  87.8982 280.6933 0001495  68.6354 291.4935 13.13471207 41831
ONEWEB-0112             
1 48051U 21025K   22015.81961144 -.00000122  00000+0 -36889-3 0  9995
2 48051  87.8873 280.7352 0001530  74.0520 286.0778 13.13467603 41800
ONEWEB-0156             
1 48052U 21025L   22016.13330089 -.00000212  00000+0 -61656-3 0  9990
2 48052  87.8988 280.6635 0001595  75.5867 284.5440 13.13469363 41839
ONEWEB-0161             
1 48053U 21025M   22016.10640767  .00000312  00000+0  82034-3 0  9997
2 48053  87.8921 280.6866 0001458  79.3694 280.7599 13.13471593 41764
ONEWEB-0158             
1 48054U 21025N   22015.84201646 -.00000232  00000+0 -66917-3 0  9992
2 48054  87.8979 280.7480 0001561  62.4501 297.6786 13.13472509 41848
ONEWEB-0157             
1 48055U 21025P   22015.78823603 -.00000004  00000+0 -46378-4 0  9996
2 48055  87.8952 280.7507 0001710  90.4868 269.6457 13.13471949 41776
ONEWEB-0162             
1 48056U 21025Q   22016.13105863 -.00000191  00000+0 -55932-3 0  9990
2 48056  87.8899 280.6567 0001769  76.1633 283.9692 13.13467691 41776
ONEWEB-0155             
1 48057U 21025R   22015.77257362 -.00000014  00000+0 -72576-4 0  9990
2 48057  87.8935 280.7470 0001367  75.8076 284.3205 13.13472699 41884
ONEWEB-0149             
1 48058U 21025S   22015.79274113  .00000328  00000+0  86376-3 0  9994
2 48058  87.8976 280.7253 0002206  78.1004 282.0372 13.13469819 41698
ONEWEB-0148             
1 48059U 21025T   22016.13776874 -.00000283  00000+0 -81021-3 0  9999
2 48059  87.8945 280.6619 0002410  90.9385 269.2020 13.13470328 41864
ONEWEB-0160             
1 48060U 21025U   22015.77481638 -.00000091  00000+0 -28403-3 0  9993
2 48060  87.8926 280.7507 0001937  32.5507 327.5741 13.13467174 41765
ONEWEB-0163             
1 48061U 21025V   22016.14000109 -.00000516  00000+0 -14475-2 0  9991
2 48061  87.8994 280.7019 0001694 100.2135 259.9185 13.13469425 41940
ONEWEB-0159             
1 48062U 21025W   22016.12880876 -.00000105  00000+0 -32182-3 0  9997
2 48062  87.8973 280.6183 0001924  96.0233 264.1115 13.13460346 41850
ONEWEB-0164             
1 48063U 21025X   22015.80617098  .00000235  00000+0  60853-3 0  9994
2 48063  87.9003 280.7732 0001206  71.1734 288.9525 13.13468672 41792
ONEWEB-0167             
1 48064U 21025Y   22016.14224952 -.00000453  00000+0 -12751-2 0  9993
2 48064  87.8957 280.6773 0001742  90.3167 269.8162 13.13470849 41820
ONEWEB-0166             
1 48065U 21025Z   22016.08624342  .00000086  00000+0  20001-3 0  9992
2 48065  87.8868 280.6890 0001559  85.2969 274.8338 13.13471543 41891
ONEWEB-0151             
1 48066U 21025AA  22016.08846997  .00000140  00000+0  34940-3 0  9993
2 48066  87.8968 280.6870 0001105  72.5772 287.5478 13.13472235 41849
ONEWEB-0170             
1 48067U 21025AB  22016.09519195  .00000207  00000+0  53178-3 0  9990
2 48067  87.8998 280.7107 0000797  32.6088 327.5090 13.13472744 41794
ONEWEB-0168             
1 48068U 21025AC  22016.15793884 -.00000030  00000+0 -11699-3 0  9995
2 48068  87.8981 280.6857 0001592  82.6247 277.5063 13.13470560 41815
ONEWEB-0173             
1 48069U 21025AD  22016.15121740 -.00000176  00000+0 -51587-3 0  9993
2 48069  87.8983 280.6937 0001350  99.9967 260.1315 13.13470064 42053
ONEWEB-0171             
1 48070U 21025AE  22015.80394332  .00000403  00000+0  10682-2 0  9996
2 48070  87.8913 280.7176 0001820  82.1761 277.9575 13.13469019 41828
